{
  "type": "FeatureCollection",
  "features": [
    {
      "type": "Feature",
      "properties": {
        "norad_id": 46277,
        "name": "NEMO-HD",
        "group": "resource",
        "lat": -46.325730589600624,
        "lon": 65.27854003245133,
        "alt_km": 451.3881584785586,
        "timestamp": "2025-12-24T16:52:41.158122+00:00",
        "meta_object_name": "NEMO-HD",
        "meta_object_id": "2020-061F",
        "meta_epoch": "2025-12-24T06:10:07.257216",
        "meta_mean_motion": 15.40557215,
        "meta_eccentricity": 0.00011262,
        "meta_inclination": 97.219,
        "meta_ra_of_asc_node": 57.2087,
        "meta_arg_of_pericenter": 52.7836,
        "meta_mean_anomaly": 307.3513,
        "meta_ephemeris_type": 0,
        "meta_classification_type": "U",
        "meta_norad_cat_id": 46277,
        "meta_element_set_no": 999,
        "meta_rev_at_epoch": 29501,
        "meta_bstar": 0.00028953075,
        "meta_mean_motion_dot": 0.00011687,
        "meta_mean_motion_ddot": 0,
        "tle_line1": "1 46277U 20061F   25358.25702844  .00011687  00000+0  28953-3 0  9992",
        "tle_line2": "2 46277  97.2190  57.2087 0001126  52.7836 307.3513 15.40557215295010"
      },
      "geometry": {
        "type": "Point",
        "coordinates": [
          65.27854003245133,
          -46.325730589600624
        ]
      }
    },
    {
      "type": "Feature",
      "properties": {
        "norad_id": 46984,
        "name": "SENTINEL-6A",
        "group": "resource",
        "lat": -1.555947398468262,
        "lon": -41.848082882026176,
        "alt_km": 1339.5636723590387,
        "timestamp": "2025-12-24T16:52:41.158132+00:00",
        "meta_object_name": "SENTINEL-6A",
        "meta_object_id": "2020-086A",
        "meta_epoch": "2025-12-23T19:19:13.530144",
        "meta_mean_motion": 12.80930767,
        "meta_eccentricity": 0.00077496,
        "meta_inclination": 66.0398,
        "meta_ra_of_asc_node": 139.3251,
        "meta_arg_of_pericenter": 269.3952,
        "meta_mean_anomaly": 90.6175,
        "meta_ephemeris_type": 0,
        "meta_classification_type": "U",
        "meta_norad_cat_id": 46984,
        "meta_element_set_no": 999,
        "meta_rev_at_epoch": 23786,
        "meta_bstar": -6.596775e-06,
        "meta_mean_motion_dot": -6.3e-07,
        "meta_mean_motion_ddot": 0,
        "tle_line1": "1 46984U 20086A   25357.80501771 -.00000063  00000+0 -65968-5 0  9997",
        "tle_line2": "2 46984  66.0398 139.3251 0007749 269.3952  90.6175 12.80930767237869"
      },
      "geometry": {
        "type": "Point",
        "coordinates": [
          -41.848082882026176,
          -1.555947398468262
        ]
      }
    },
    {
      "type": "Feature",
      "properties": {
        "norad_id": 48079,
        "name": "GAOFEN-12 02",
        "group": "resource",
        "lat": 5.227165623673812,
        "lon": -8.083617151026662,
        "alt_km": 628.6577106172663,
        "timestamp": "2025-12-24T16:52:41.158142+00:00",
        "meta_object_name": "GAOFEN-12 02",
        "meta_object_id": "2021-026A",
        "meta_epoch": "2025-12-24T07:07:23.556288",
        "meta_mean_motion": 14.80688279,
        "meta_eccentricity": 0.0003565,
        "meta_inclination": 97.9857,
        "meta_ra_of_asc_node": 352.2477,
        "meta_arg_of_pericenter": 77.9222,
        "meta_mean_anomaly": 282.2389,
        "meta_ephemeris_type": 0,
        "meta_classification_type": "U",
        "meta_norad_cat_id": 48079,
        "meta_element_set_no": 999,
        "meta_rev_at_epoch": 25588,
        "meta_bstar": 7.1700666e-05,
        "meta_mean_motion_dot": 4.98e-06,
        "meta_mean_motion_ddot": 0,
        "tle_line1": "1 48079U 21026A   25358.29680042  .00000498  00000+0  71701-4 0  9993",
        "tle_line2": "2 48079  97.9857 352.2477 0003565  77.9222 282.2389 14.80688279255888"
      },
      "geometry": {
        "type": "Point",
        "coordinates": [
          -8.083617151026662,
          5.227165623673812
        ]
      }
    },
    {
      "type": "Feature",
      "properties": {
        "norad_id": 48268,
        "name": "PLEIADES NEO 3",
        "group": "resource",
        "lat": 63.8878253501115,
        "lon": -92.58254378386059,
        "alt_km": 617.0088466329553,
        "timestamp": "2025-12-24T16:52:41.158153+00:00",
        "meta_object_name": "PLEIADES NEO 3",
        "meta_object_id": "2021-034A",
        "meta_epoch": "2025-12-24T06:38:11.931936",
        "meta_mean_motion": 14.81670394,
        "meta_eccentricity": 0.00013101,
        "meta_inclination": 97.8946,
        "meta_ra_of_asc_node": 70.5522,
        "meta_arg_of_pericenter": 90.1017,
        "meta_mean_anomaly": 270.0345,
        "meta_ephemeris_type": 0,
        "meta_classification_type": "U",
        "meta_norad_cat_id": 48268,
        "meta_element_set_no": 999,
        "meta_rev_at_epoch": 25175,
        "meta_bstar": -5.390172e-05,
        "meta_mean_motion_dot": -4.76e-06,
        "meta_mean_motion_ddot": 0,
        "tle_line1": "1 48268U 21034A   25358.27652699 -.00000476  00000+0 -53902-4 0  9998",
        "tle_line2": "2 48268  97.8946  70.5522 0001310  90.1017 270.0345 14.81670394251751"
      },
      "geometry": {
        "type": "Point",
        "coordinates": [
          -92.58254378386059,
          63.8878253501115
        ]
      }
    },
    {
      "type": "Feature",
      "properties": {
        "norad_id": 49070,
        "name": "PLEIADES NEO 4",
        "group": "resource",
        "lat": -63.931369147194566,
        "lon": 87.4462216583386,
        "alt_km": 632.1261022957397,
        "timestamp": "2025-12-24T16:52:41.158163+00:00",
        "meta_object_name": "PLEIADES NEO 4",
        "meta_object_id": "2021-073E",
        "meta_epoch": "2025-12-24T05:49:33.460896",
        "meta_mean_motion": 14.8167211,
        "meta_eccentricity": 0.00013459,
        "meta_inclination": 97.8946,
        "meta_ra_of_asc_node": 70.5151,
        "meta_arg_of_pericenter": 92.647,
        "meta_mean_anomaly": 267.4897,
        "meta_ephemeris_type": 0,
        "meta_classification_type": "U",
        "meta_norad_cat_id": 49070,
        "meta_element_set_no": 999,
        "meta_rev_at_epoch": 23546,
        "meta_bstar": 1.7928738e-05,
        "meta_mean_motion_dot": 8.9e-07,
        "meta_mean_motion_ddot": 0,
        "tle_line1": "1 49070U 21073E   25358.24274839  .00000089  00000+0  17929-4 0  9993",
        "tle_line2": "2 49070  97.8946  70.5151 0001345  92.6470 267.4897 14.81672110235469"
      },
      "geometry": {
        "type": "Point",
        "coordinates": [
          87.4462216583386,
          -63.931369147194566
        ]
      }
    },
    {
      "type": "Feature",
      "properties": {
        "norad_id": 49260,
        "name": "LANDSAT 9",
        "group": "resource",
        "lat": -24.533664558916186,
        "lon": 70.41742609623054,
        "alt_km": 708.4189020214781,
        "timestamp": "2025-12-24T16:52:41.158173+00:00",
        "meta_object_name": "LANDSAT 9",
        "meta_object_id": "2021-088A",
        "meta_epoch": "2025-12-24T03:48:25.628544",
        "meta_mean_motion": 14.57109202,
        "meta_eccentricity": 0.00011048,
        "meta_inclination": 98.2079,
        "meta_ra_of_asc_node": 66.1034,
        "meta_arg_of_pericenter": 93.1257,
        "meta_mean_anomaly": 267.0068,
        "meta_ephemeris_type": 0,
        "meta_classification_type": "U",
        "meta_norad_cat_id": 49260,
        "meta_element_set_no": 999,
        "meta_rev_at_epoch": 22551,
        "meta_bstar": 0.00010495099,
        "meta_mean_motion_dot": 4.28e-06,
        "meta_mean_motion_ddot": 0,
        "tle_line1": "1 49260U 21088A   25358.15862996  .00000428  00000+0  10495-3 0  9994",
        "tle_line2": "2 49260  98.2079  66.1034 0001104  93.1257 267.0068 14.57109202225516"
      },
      "geometry": {
        "type": "Point",
        "coordinates": [
          70.41742609623054,
          -24.533664558916186
        ]
      }
    },
    {
      "type": "Feature",
      "properties": {
        "norad_id": 51444,
        "name": "CSG-2",
        "group": "resource",
        "lat": -11.754805075914524,
        "lon": -178.502851199876,
        "alt_km": 627.0025446926538,
        "timestamp": "2025-12-24T16:52:41.158183+00:00",
        "meta_object_name": "CSG-2",
        "meta_object_id": "2022-008A",
        "meta_epoch": "2025-12-24T07:12:35.964000",
        "meta_mean_motion": 14.82153656,
        "meta_eccentricity": 0.00014944,
        "meta_inclination": 97.8803,
        "meta_ra_of_asc_node": 179.449,
        "meta_arg_of_pericenter": 82.2721,
        "meta_mean_anomaly": 277.8662,
        "meta_ephemeris_type": 0,
        "meta_classification_type": "U",
        "meta_norad_cat_id": 51444,
        "meta_element_set_no": 999,
        "meta_rev_at_epoch": 21068,
        "meta_bstar": 3.210431e-06,
        "meta_mean_motion_dot": -2.7e-07,
        "meta_mean_motion_ddot": 0,
        "tle_line1": "1 51444U 22008A   25358.30041625 -.00000027  00000+0  32104-5 0  9998",
        "tle_line2": "2 51444  97.8803 179.4490 0001494  82.2721 277.8662 14.82153656210685"
      },
      "geometry": {
        "type": "Point",
        "coordinates": [
          -178.502851199876,
          -11.754805075914524
        ]
      }
    }
  ]
}